[{"COMMENT":"GENERATED VIA SPACETRACK.ORG API","ORIGINATOR":"18 SPCS","NORAD_CAT_ID":"43477","OBJECT_NAME":"GRACE-FO 2","OBJECT_TYPE":"PAYLOAD","CLASSIFICATION_TYPE":"U","INTLDES":"18047B","EPOCH":"2024-01-08 14:35:43","EPOCH_MICROSECONDS":"999296","MEAN_MOTION":"15.27795304","ECCENTRICITY":"0.0012158","INCLINATION":"88.9837","RA_OF_ASC_NODE":"321.1772","ARG_OF_PERICENTER":"340.4271","MEAN_ANOMALY":"19.651","EPHEMERIS_TYPE":"0","ELEMENT_SET_NO":"999","REV_AT_EPOCH":"31334","BSTAR":"0.00015568","MEAN_MOTION_DOT":"0.0000426","MEAN_MOTION_DDOT":"0","FILE":"4156666","TLE_LINE0":"0 GRACE-FO 2","TLE_LINE1":"1 43477U 18047B   24008.60814814  .00004260  00000-0  15568-3 0  9991","TLE_LINE2":"2 43477  88.9837 321.1772 0012158 340.4271  19.6510 15.27795304313340","OBJECT_ID":"2018-047B","OBJECT_NUMBER":"43477","SEMIMAJOR_AXIS":"6860.541","PERIOD":"94.253","APOGEE":"490.748","PERIGEE":"474.065","DECAYED":"0"},{"COMMENT":"GENERATED VIA SPACETRACK.ORG API","ORIGINATOR":"18 SPCS","NORAD_CAT_ID":"43477","OBJECT_NAME":"GRACE-FO 2","OBJECT_TYPE":"PAYLOAD","CLASSIFICATION_TYPE":"U","INTLDES":"18047B","EPOCH":"2024-01-08 22:27:19","EPOCH_MICROSECONDS":"770336","MEAN_MOTION":"15.27798496","ECCENTRICITY":"0.0012096","INCLINATION":"88.9838","RA_OF_ASC_NODE":"321.1324","ARG_OF_PERICENTER":"339.0625","MEAN_ANOMALY":"21.0127","EPHEMERIS_TYPE":"0","ELEMENT_SET_NO":"999","REV_AT_EPOCH":"31339","BSTAR":"0.00016183","MEAN_MOTION_DOT":"0.00004428","MEAN_MOTION_DDOT":"0","FILE":"4156930","TLE_LINE0":"0 GRACE-FO 2","TLE_LINE1":"1 43477U 18047B   24008.93564549  .00004428  00000-0  16183-3 0  9994","TLE_LINE2":"2 43477  88.9838 321.1324 0012096 339.0625  21.0127 15.27798496313393","OBJECT_ID":"2018-047B","OBJECT_NUMBER":"43477","SEMIMAJOR_AXIS":"6860.532","PERIOD":"94.253","APOGEE":"490.695","PERIGEE":"474.098","DECAYED":"0"},{"COMMENT":"GENERATED VIA SPACETRACK.ORG API","ORIGINATOR":"18 SPCS","NORAD_CAT_ID":"43477","OBJECT_NAME":"GRACE-FO 2","OBJECT_TYPE":"PAYLOAD","CLASSIFICATION_TYPE":"U","INTLDES":"18047B","EPOCH":"2024-01-09 03:10:17","EPOCH_MICROSECONDS":"222592","MEAN_MOTION":"15.27799862","ECCENTRICITY":"0.0012055","INCLINATION":"88.9839","RA_OF_ASC_NODE":"321.1054","ARG_OF_PERICENTER":"338.2209","MEAN_ANOMALY":"21.8526","EPHEMERIS_TYPE":"0","ELEMENT_SET_NO":"999","REV_AT_EPOCH":"31342","BSTAR":"0.00015989","MEAN_MOTION_DOT":"0.00004375","MEAN_MOTION_DDOT":"0","FILE":"4157008","TLE_LINE0":"0 GRACE-FO 2","TLE_LINE1":"1 43477U 18047B   24009.13214378  .00004375  00000-0  15989-3 0  9993","TLE_LINE2":"2 43477  88.9839 321.1054 0012055 338.2209  21.8526 15.27799862313421","OBJECT_ID":"2018-047B","OBJECT_NUMBER":"43477","SEMIMAJOR_AXIS":"6860.528","PERIOD":"94.253","APOGEE":"490.663","PERIGEE":"474.122","DECAYED":"0"},{"COMMENT":"GENERATED VIA SPACETRACK.ORG API","ORIGINATOR":"18 SPCS","NORAD_CAT_ID":"43477","OBJECT_NAME":"GRACE-FO 2","OBJECT_TYPE":"PAYLOAD","CLASSIFICATION_TYPE":"U","INTLDES":"18047B","EPOCH":"2024-01-09 14:10:31","EPOCH_MICROSECONDS":"168128","MEAN_MOTION":"15.27804526","ECCENTRICITY":"0.0011961","INCLINATION":"88.984","RA_OF_ASC_NODE":"321.0427","ARG_OF_PERICENTER":"336.2881","MEAN_ANOMALY":"23.7815","EPHEMERIS_TYPE":"0","ELEMENT_SET_NO":"999","REV_AT_EPOCH":"31349","BSTAR":"0.00016952","MEAN_MOTION_DOT":"0.00004637","MEAN_MOTION_DDOT":"0","FILE":"4157515","TLE_LINE0":"0 GRACE-FO 2","TLE_LINE1":"1 43477U 18047B   24009.59063852  .00004637  00000-0  16952-3 0  9994","TLE_LINE2":"2 43477  88.9840 321.0427 0011961 336.2881  23.7815 15.27804526313498","OBJECT_ID":"2018-047B","OBJECT_NUMBER":"43477","SEMIMAJOR_AXIS":"6860.514","PERIOD":"94.253","APOGEE":"490.585","PERIGEE":"474.173","DECAYED":"0"},{"COMMENT":"GENERATED VIA SPACETRACK.ORG API","ORIGINATOR":"18 SPCS","NORAD_CAT_ID":"43477","OBJECT_NAME":"GRACE-FO 2","OBJECT_TYPE":"PAYLOAD","CLASSIFICATION_TYPE":"U","INTLDES":"18047B","EPOCH":"2024-01-09 22:02:06","EPOCH_MICROSECONDS":"768960","MEAN_MOTION":"15.27807682","ECCENTRICITY":"0.0011882","INCLINATION":"88.9841","RA_OF_ASC_NODE":"320.998","ARG_OF_PERICENTER":"334.8189","MEAN_ANOMALY":"25.248","EPHEMERIS_TYPE":"0","ELEMENT_SET_NO":"999","REV_AT_EPOCH":"31354","BSTAR":"0.00017047","MEAN_MOTION_DOT":"0.00004663","MEAN_MOTION_DDOT":"0","FILE":"4157773","TLE_LINE0":"0 GRACE-FO 2","TLE_LINE1":"1 43477U 18047B   24009.91813390  .00004663  00000-0  17047-3 0  9995","TLE_LINE2":"2 43477  88.9841 320.9980 0011882 334.8189  25.2480 15.27807682313545","OBJECT_ID":"2018-047B","OBJECT_NUMBER":"43477","SEMIMAJOR_AXIS":"6860.504","PERIOD":"94.253","APOGEE":"490.521","PERIGEE":"474.218","DECAYED":"0"},{"COMMENT":"GENERATED VIA SPACETRACK.ORG API","ORIGINATOR":"18 SPCS","NORAD_CAT_ID":"43477","OBJECT_NAME":"GRACE-FO 2","OBJECT_TYPE":"PAYLOAD","CLASSIFICATION_TYPE":"U","INTLDES":"18047B","EPOCH":"2024-01-10 10:36:39","EPOCH_MICROSECONDS":"635424","MEAN_MOTION":"15.27812087","ECCENTRICITY":"0.0011768","INCLINATION":"88.9843","RA_OF_ASC_NODE":"320.9263","ARG_OF_PERICENTER":"332.5269","MEAN_ANOMALY":"27.5357","EPHEMERIS_TYPE":"0","ELEMENT_SET_NO":"999","REV_AT_EPOCH":"31362","BSTAR":"0.00016342","MEAN_MOTION_DOT":"0.00004472","MEAN_MOTION_DDOT":"0","FILE":"4158107","TLE_LINE0":"0 GRACE-FO 2","TLE_LINE1":"1 43477U 18047B   24010.44212541  .00004472  00000-0  16342-3 0  9991","TLE_LINE2":"2 43477  88.9843 320.9263 0011768 332.5269  27.5357 15.27812087313620","OBJECT_ID":"2018-047B","OBJECT_NUMBER":"43477","SEMIMAJOR_AXIS":"6860.491","PERIOD":"94.252","APOGEE":"490.430","PERIGEE":"474.283","DECAYED":"0"},{"COMMENT":"GENERATED VIA SPACETRACK.ORG API","ORIGINATOR":"18 SPCS","NORAD_CAT_ID":"43477","OBJECT_NAME":"GRACE-FO 2","OBJECT_TYPE":"PAYLOAD","CLASSIFICATION_TYPE":"U","INTLDES":"18047B","EPOCH":"2024-01-10 10:36:39","EPOCH_MICROSECONDS":"635424","MEAN_MOTION":"15.27812087","ECCENTRICITY":"0.0011768","INCLINATION":"88.9843","RA_OF_ASC_NODE":"320.9263","ARG_OF_PERICENTER":"332.5269","MEAN_ANOMALY":"27.5357","EPHEMERIS_TYPE":"0","ELEMENT_SET_NO":"999","REV_AT_EPOCH":"31362","BSTAR":"0.00016342","MEAN_MOTION_DOT":"0.00004472","MEAN_MOTION_DDOT":"0","FILE":"4158336","TLE_LINE0":"0 GRACE-FO 2","TLE_LINE1":"1 43477U 18047B   24010.44212541  .00004472  00000-0  16342-3 0  9991","TLE_LINE2":"2 43477  88.9843 320.9263 0011768 332.5269  27.5357 15.27812087313620","OBJECT_ID":"2018-047B","OBJECT_NUMBER":"43477","SEMIMAJOR_AXIS":"6860.491","PERIOD":"94.252","APOGEE":"490.430","PERIGEE":"474.283","DECAYED":"0"},{"COMMENT":"GENERATED VIA SPACETRACK.ORG API","ORIGINATOR":"18 SPCS","NORAD_CAT_ID":"43477","OBJECT_NAME":"GRACE-FO 2","OBJECT_TYPE":"PAYLOAD","CLASSIFICATION_TYPE":"U","INTLDES":"18047B","EPOCH":"2024-01-11 11:45:44","EPOCH_MICROSECONDS":"860320","MEAN_MOTION":"15.27823752","ECCENTRICITY":"0.0011561","INCLINATION":"88.9848","RA_OF_ASC_NODE":"320.7828","ARG_OF_PERICENTER":"328.0058","MEAN_ANOMALY":"32.0488","EPHEMERIS_TYPE":"0","ELEMENT_SET_NO":"999","REV_AT_EPOCH":"31378","BSTAR":"0.00018433","MEAN_MOTION_DOT":"0.00005042","MEAN_MOTION_DDOT":"0","FILE":"4159019","TLE_LINE0":"0 GRACE-FO 2","TLE_LINE1":"1 43477U 18047B   24011.49010255  .00005042  00000-0  18433-3 0  9992","TLE_LINE2":"2 43477  88.9848 320.7828 0011561 328.0058  32.0488 15.27823752313781","OBJECT_ID":"2018-047B","OBJECT_NUMBER":"43477","SEMIMAJOR_AXIS":"6860.456","PERIOD":"94.252","APOGEE":"490.253","PERIGEE":"474.390","DECAYED":"0"}]